[{"OBJECT_NAME":"STARLINK-36743","OBJECT_ID":"2026-034AC","EPOCH":"2026-03-03T14:00:03.000384","MEAN_MOTION":15.80868666,"ECCENTRICITY":0.0001049,"INCLINATION":53.1587,"RA_OF_ASC_NODE":241.7261,"ARG_OF_PERICENTER":96.097,"MEAN_ANOMALY":284.1028,"EPHEMERIS_TYPE":0,"CLASSIFICATION_TYPE":"U","NORAD_CAT_ID":67876,"ELEMENT_SET_NO":999,"REV_AT_EPOCH":288,"BSTAR":0.00031896,"MEAN_MOTION_DOT":0.00062699,"MEAN_MOTION_DDOT":0},{"OBJECT_NAME":"STARLINK-36784","OBJECT_ID":"2026-034AD","EPOCH":"2026-03-03T14:00:03.000384","MEAN_MOTION":15.80889329,"ECCENTRICITY":0.0001081,"INCLINATION":53.1569,"RA_OF_ASC_NODE":241.7176,"ARG_OF_PERICENTER":79.5002,"MEAN_ANOMALY":304.9745,"EPHEMERIS_TYPE":0,"CLASSIFICATION_TYPE":"U","NORAD_CAT_ID":67877,"ELEMENT_SET_NO":999,"REV_AT_EPOCH":288,"BSTAR":7.5334e-5,"MEAN_MOTION_DOT":0.00014205,"MEAN_MOTION_DDOT":0},{"OBJECT_NAME":"STARLINK-36689","OBJECT_ID":"2026-034AE","EPOCH":"2026-03-03T14:00:03.000384","MEAN_MOTION":15.80920728,"ECCENTRICITY":9.95e-5,"INCLINATION":53.1569,"RA_OF_ASC_NODE":241.7093,"ARG_OF_PERICENTER":98.2745,"MEAN_ANOMALY":290.4655,"EPHEMERIS_TYPE":0,"CLASSIFICATION_TYPE":"U","NORAD_CAT_ID":67878,"ELEMENT_SET_NO":999,"REV_AT_EPOCH":288,"BSTAR":-0.00033566,"MEAN_MOTION_DOT":-0.00066584,"MEAN_MOTION_DDOT":0},{"OBJECT_NAME":"STARLINK-36818","OBJECT_ID":"2026-035A","EPOCH":"2026-03-03T14:00:03.000384","MEAN_MOTION":16.00267373,"ECCENTRICITY":0.0001232,"INCLINATION":97.2788,"RA_OF_ASC_NODE":354.4338,"ARG_OF_PERICENTER":97.5957,"MEAN_ANOMALY":343.6113,"EPHEMERIS_TYPE":0,"CLASSIFICATION_TYPE":"U","NORAD_CAT_ID":67879,"ELEMENT_SET_NO":999,"REV_AT_EPOCH":277,"BSTAR":-0.001677,"MEAN_MOTION_DOT":-0.00860977,"MEAN_MOTION_DDOT":0.00024903},{"OBJECT_NAME":"STARLINK-36821","OBJECT_ID":"2026-035B","EPOCH":"2026-03-03T14:00:03.000384","MEAN_MOTION":16.00453094,"ECCENTRICITY":0.0001141,"INCLINATION":97.2784,"RA_OF_ASC_NODE":354.4365,"ARG_OF_PERICENTER":95.2126,"MEAN_ANOMALY":351.8005,"EPHEMERIS_TYPE":0,"CLASSIFICATION_TYPE":"U","NORAD_CAT_ID":67880,"ELEMENT_SET_NO":999,"REV_AT_EPOCH":277,"BSTAR":-0.0016656,"MEAN_MOTION_DOT":-0.00864211,"MEAN_MOTION_DDOT":0.0002513},{"OBJECT_NAME":"STARLINK-36808","OBJECT_ID":"2026-035C","EPOCH":"2026-03-03T14:00:03.000384","MEAN_MOTION":16.00337486,"ECCENTRICITY":0.0001286,"INCLINATION":97.2784,"RA_OF_ASC_NODE":354.4347,"ARG_OF_PERICENTER":107.8304,"MEAN_ANOMALY":335.5546,"EPHEMERIS_TYPE":0,"CLASSIFICATION_TYPE":"U","NORAD_CAT_ID":67881,"ELEMENT_SET_NO":999,"REV_AT_EPOCH":277,"BSTAR":-0.001666,"MEAN_MOTION_DOT":-0.00858792,"MEAN_MOTION_DDOT":0.00024805},{"OBJECT_NAME":"STARLINK-36817","OBJECT_ID":"2026-035D","EPOCH":"2026-03-03T14:00:03.000384","MEAN_MOTION":16.0067383,"ECCENTRICITY":0.0001155,"INCLINATION":97.2776,"RA_OF_ASC_NODE":354.4392,"ARG_OF_PERICENTER":90.1991,"MEAN_ANOMALY":3.9095,"EPHEMERIS_TYPE":0,"CLASSIFICATION_TYPE":"U","NORAD_CAT_ID":67882,"ELEMENT_SET_NO":999,"REV_AT_EPOCH":277,"BSTAR":-0.0016516,"MEAN_MOTION_DOT":-0.00867742,"MEAN_MOTION_DDOT":0.00025385},{"OBJECT_NAME":"STARLINK-36856","OBJECT_ID":"2026-035E","EPOCH":"2026-03-03T14:00:03.000384","MEAN_MOTION":16.00567808,"ECCENTRICITY":0.0001197,"INCLINATION":97.2781,"RA_OF_ASC_NODE":354.4378,"ARG_OF_PERICENTER":98.5258,"MEAN_ANOMALY":352.2852,"EPHEMERIS_TYPE":0,"CLASSIFICATION_TYPE":"U","NORAD_CAT_ID":67883,"ELEMENT_SET_NO":999,"REV_AT_EPOCH":277,"BSTAR":-0.0016558,"MEAN_MOTION_DOT":-0.00864727,"MEAN_MOTION_DDOT":0.00025191},{"OBJECT_NAME":"STARLINK-36842","OBJECT_ID":"2026-035F","EPOCH":"2026-03-03T14:00:03.000384","MEAN_MOTION":16.00776963,"ECCENTRICITY":0.0001109,"INCLINATION":97.2777,"RA_OF_ASC_NODE":354.4403,"ARG_OF_PERICENTER":95.6731,"MEAN_ANOMALY":1.5004,"EPHEMERIS_TYPE":0,"CLASSIFICATION_TYPE":"U","NORAD_CAT_ID":67884,"ELEMENT_SET_NO":999,"REV_AT_EPOCH":277,"BSTAR":-0.0016502,"MEAN_MOTION_DOT":-0.00872072,"MEAN_MOTION_DDOT":0.00025651},{"OBJECT_NAME":"STARLINK-36826","OBJECT_ID":"2026-035G","EPOCH":"2026-03-03T14:00:03.000384","MEAN_MOTION":16.00854942,"ECCENTRICITY":0.0001136,"INCLINATION":97.2777,"RA_OF_ASC_NODE":354.4416,"ARG_OF_PERICENTER":85.5217,"MEAN_ANOMALY":14.0731,"EPHEMERIS_TYPE":0,"CLASSIFICATION_TYPE":"U","NORAD_CAT_ID":67885,"ELEMENT_SET_NO":999,"REV_AT_EPOCH":277,"BSTAR":-0.001628,"MEAN_MOTION_DOT":-0.0086426,"MEAN_MOTION_DDOT":0.00025249},{"OBJECT_NAME":"STARLINK-36390","OBJECT_ID":"2026-035H","EPOCH":"2026-03-03T14:00:03.000384","MEAN_MOTION":16.0097837,"ECCENTRICITY":0.0001202,"INCLINATION":97.2774,"RA_OF_ASC_NODE":354.4431,"ARG_OF_PERICENTER":94.7543,"MEAN_ANOMALY":8.6027,"EPHEMERIS_TYPE":0,"CLASSIFICATION_TYPE":"U","NORAD_CAT_ID":67886,"ELEMENT_SET_NO":999,"REV_AT_EPOCH":282,"BSTAR":-0.0016452,"MEAN_MOTION_DOT":-0.00879501,"MEAN_MOTION_DDOT":0.00026119},{"OBJECT_NAME":"STARLINK-36368","OBJECT_ID":"2026-035J","EPOCH":"2026-03-03T14:00:03.000384","MEAN_MOTION":16.01099817,"ECCENTRICITY":0.0001292,"INCLINATION":97.2772,"RA_OF_ASC_NODE":354.4446,"ARG_OF_PERICENTER":106.2695,"MEAN_ANOMALY":0.6544,"EPHEMERIS_TYPE":0,"CLASSIFICATION_TYPE":"U","NORAD_CAT_ID":67887,"ELEMENT_SET_NO":999,"REV_AT_EPOCH":277,"BSTAR":-0.0016897,"MEAN_MOTION_DOT":-0.00909364,"MEAN_MOTION_DDOT":0.00027828},{"OBJECT_NAME":"STARLINK-36801","OBJECT_ID":"2026-035K","EPOCH":"2026-03-03T14:00:03.000384","MEAN_MOTION":16.01232787,"ECCENTRICITY":0.000124,"INCLINATION":97.277,"RA_OF_ASC_NODE":354.446,"ARG_OF_PERICENTER":74.015,"MEAN_ANOMALY":36.3277,"EPHEMERIS_TYPE":0,"CLASSIFICATION_TYPE":"U","NORAD_CAT_ID":67888,"ELEMENT_SET_NO":999,"REV_AT_EPOCH":277,"BSTAR":-0.0017733,"MEAN_MOTION_DOT":-0.00961273,"MEAN_MOTION_DDOT":0.00030893},{"OBJECT_NAME":"STARLINK-36372","OBJECT_ID":"2026-035L","EPOCH":"2026-03-03T14:00:03.000384","MEAN_MOTION":16.01451415,"ECCENTRICITY":0.0001267,"INCLINATION":97.2766,"RA_OF_ASC_NODE":354.4486,"ARG_OF_PERICENTER":76.2123,"MEAN_ANOMALY":40.6975,"EPHEMERIS_TYPE":0,"CLASSIFICATION_TYPE":"U","NORAD_CAT_ID":67889,"ELEMENT_SET_NO":999,"REV_AT_EPOCH":277,"BSTAR":-0.0018585,"MEAN_MOTION_DOT":-0.01019723,"MEAN_MOTION_DDOT":0.0003455},{"OBJECT_NAME":"STARLINK-36363","OBJECT_ID":"2026-035M","EPOCH":"2026-03-03T14:00:03.000384","MEAN_MOTION":16.01360578,"ECCENTRICITY":0.0001312,"INCLINATION":97.277,"RA_OF_ASC_NODE":354.4477,"ARG_OF_PERICENTER":98.2889,"MEAN_ANOMALY":15.9482,"EPHEMERIS_TYPE":0,"CLASSIFICATION_TYPE":"U","NORAD_CAT_ID":67890,"ELEMENT_SET_NO":999,"REV_AT_EPOCH":277,"BSTAR":-0.0018379,"MEAN_MOTION_DOT":-0.01003265,"MEAN_MOTION_DDOT":0.00033489},{"OBJECT_NAME":"STARLINK-36816","OBJECT_ID":"2026-035N","EPOCH":"2026-03-03T14:00:03.000384","MEAN_MOTION":16.02855162,"ECCENTRICITY":0.0001212,"INCLINATION":97.2747,"RA_OF_ASC_NODE":354.4682,"ARG_OF_PERICENTER":93.6864,"MEAN_ANOMALY":72.8164,"EPHEMERIS_TYPE":0,"CLASSIFICATION_TYPE":"U","NORAD_CAT_ID":67891,"ELEMENT_SET_NO":999,"REV_AT_EPOCH":266,"BSTAR":-0.0017578,"MEAN_MOTION_DOT":-0.01046168,"MEAN_MOTION_DDOT":0.0003682}]
